{
  "type": "FeatureCollection",
  "features": [
    {
      "type": "Feature",
      "properties": {
        "norad_id": 58701,
        "name": "TIANMU-1 16",
        "group": "weather",
        "lat": 56.33281394532727,
        "lon": 8.857051035879582,
        "alt_km": 488.6125001796454,
        "timestamp": "2025-12-22T16:55:17.091945+00:00",
        "meta_object_name": "TIANMU-1 16",
        "meta_object_id": "2024-004B",
        "meta_epoch": "2025-12-22T06:55:57.120384",
        "meta_mean_motion": 15.24552705,
        "meta_eccentricity": 0.00043511,
        "meta_inclination": 97.4562,
        "meta_ra_of_asc_node": 177.1035,
        "meta_arg_of_pericenter": 252.5302,
        "meta_mean_anomaly": 107.546,
        "meta_ephemeris_type": 0,
        "meta_classification_type": "U",
        "meta_norad_cat_id": 58701,
        "meta_element_set_no": 999,
        "meta_rev_at_epoch": 10880,
        "meta_bstar": 0.00028270672,
        "meta_mean_motion_dot": 6.891e-05,
        "meta_mean_motion_ddot": 0,
        "tle_line1": "1 58701U 24004B   25356.28885556  .00006891  00000+0  28271-3 0  9995",
        "tle_line2": "2 58701  97.4562 177.1035 0004351 252.5302 107.5460 15.24552705108808"
      },
      "geometry": {
        "type": "Point",
        "coordinates": [
          8.857051035879582,
          56.33281394532727
        ]
      }
    },
    {
      "type": "Feature",
      "properties": {
        "norad_id": 58702,
        "name": "TIANMU-1 17",
        "group": "weather",
        "lat": -28.785749144096034,
        "lon": -6.19544937087342,
        "alt_km": 496.1867171185713,
        "timestamp": "2025-12-22T16:55:17.091956+00:00",
        "meta_object_name": "TIANMU-1 17",
        "meta_object_id": "2024-004C",
        "meta_epoch": "2025-12-22T06:33:22.586976",
        "meta_mean_motion": 15.24596043,
        "meta_eccentricity": 0.00035161,
        "meta_inclination": 97.4597,
        "meta_ra_of_asc_node": 177.5029,
        "meta_arg_of_pericenter": 254.0916,
        "meta_mean_anomaly": 105.9935,
        "meta_ephemeris_type": 0,
        "meta_classification_type": "U",
        "meta_norad_cat_id": 58702,
        "meta_element_set_no": 999,
        "meta_rev_at_epoch": 10879,
        "meta_bstar": 0.00029580619,
        "meta_mean_motion_dot": 7.223e-05,
        "meta_mean_motion_ddot": 0,
        "tle_line1": "1 58702U 24004C   25356.27317809  .00007223  00000+0  29581-3 0  9991",
        "tle_line2": "2 58702  97.4597 177.5029 0003516 254.0916 105.9935 15.24596043108794"
      },
      "geometry": {
        "type": "Point",
        "coordinates": [
          -6.19544937087342,
          -28.785749144096034
        ]
      }
    },
    {
      "type": "Feature",
      "properties": {
        "norad_id": 58703,
        "name": "TIANMU-1 18",
        "group": "weather",
        "lat": -59.238281249264375,
        "lon": -169.14961476142773,
        "alt_km": 497.9252015641914,
        "timestamp": "2025-12-22T16:55:17.091966+00:00",
        "meta_object_name": "TIANMU-1 18",
        "meta_object_id": "2024-004D",
        "meta_epoch": "2025-12-22T06:09:28.849824",
        "meta_mean_motion": 15.24579836,
        "meta_eccentricity": 0.0002884,
        "meta_inclination": 97.4614,
        "meta_ra_of_asc_node": 177.6837,
        "meta_arg_of_pericenter": 251.2522,
        "meta_mean_anomaly": 108.8403,
        "meta_ephemeris_type": 0,
        "meta_classification_type": "U",
        "meta_norad_cat_id": 58703,
        "meta_element_set_no": 999,
        "meta_rev_at_epoch": 10879,
        "meta_bstar": 0.00028963768,
        "meta_mean_motion_dot": 7.067e-05,
        "meta_mean_motion_ddot": 0,
        "tle_line1": "1 58703U 24004D   25356.25658391  .00007067  00000+0  28964-3 0  9994",
        "tle_line2": "2 58703  97.4614 177.6837 0002884 251.2522 108.8403 15.24579836108795"
      },
      "geometry": {
        "type": "Point",
        "coordinates": [
          -169.14961476142773,
          -59.238281249264375
        ]
      }
    },
    {
      "type": "Feature",
      "properties": {
        "norad_id": 58990,
        "name": "INSAT-3DS",
        "group": "weather",
        "lat": -0.007429575739795434,
        "lon": 67.43397210820582,
        "alt_km": 35790.363149514684,
        "timestamp": "2025-12-22T16:55:17.091977+00:00",
        "meta_object_name": "INSAT-3DS",
        "meta_object_id": "2024-033A",
        "meta_epoch": "2025-12-22T03:17:04.894080",
        "meta_mean_motion": 1.002719,
        "meta_eccentricity": 0.00011283,
        "meta_inclination": 0.0552,
        "meta_ra_of_asc_node": 101.4195,
        "meta_arg_of_pericenter": 172.2443,
        "meta_mean_anomaly": 308.6604,
        "meta_ephemeris_type": 0,
        "meta_classification_type": "U",
        "meta_norad_cat_id": 58990,
        "meta_element_set_no": 999,
        "meta_rev_at_epoch": 4529,
        "meta_bstar": 0,
        "meta_mean_motion_dot": -1.34e-06,
        "meta_mean_motion_ddot": 0,
        "tle_line1": "1 58990U 24033A   25356.13686220 -.00000134  00000+0  00000+0 0  9999",
        "tle_line2": "2 58990   0.0552 101.4195 0001128 172.2443 308.6604  1.00271900 45298"
      },
      "geometry": {
        "type": "Point",
        "coordinates": [
          67.43397210820582,
          -0.007429575739795434
        ]
      }
    },
    {
      "type": "Feature",
      "properties": {
        "norad_id": 59051,
        "name": "METEOR-M2 4",
        "group": "weather",
        "lat": 56.13510141340164,
        "lon": -59.696489364357205,
        "alt_km": 811.6965147467381,
        "timestamp": "2025-12-22T16:55:17.092053+00:00",
        "meta_object_name": "METEOR-M2 4",
        "meta_object_id": "2024-039A",
        "meta_epoch": "2025-12-22T06:31:28.107840",
        "meta_mean_motion": 14.22402639,
        "meta_eccentricity": 0.00065415,
        "meta_inclination": 98.678,
        "meta_ra_of_asc_node": 313.0318,
        "meta_arg_of_pericenter": 330.1423,
        "meta_mean_anomaly": 29.9381,
        "meta_ephemeris_type": 0,
        "meta_classification_type": "U",
        "meta_norad_cat_id": 59051,
        "meta_element_set_no": 999,
        "meta_rev_at_epoch": 9411,
        "meta_bstar": 2.6780315e-05,
        "meta_mean_motion_dot": 1.6e-07,
        "meta_mean_motion_ddot": 0,
        "tle_line1": "1 59051U 24039A   25356.27185310  .00000016  00000+0  26780-4 0  9999",
        "tle_line2": "2 59051  98.6780 313.0318 0006541 330.1423  29.9381 14.22402639 94111"
      },
      "geometry": {
        "type": "Point",
        "coordinates": [
          -59.696489364357205,
          56.13510141340164
        ]
      }
    },
    {
      "type": "Feature",
      "properties": {
        "norad_id": 60133,
        "name": "GOES 19",
        "group": "weather",
        "lat": -0.006872400543510594,
        "lon": -89.87428842893517,
        "alt_km": 35783.78019196359,
        "timestamp": "2025-12-22T16:55:17.092084+00:00",
        "meta_object_name": "GOES 19",
        "meta_object_id": "2024-119A",
        "meta_epoch": "2025-12-22T02:32:09.195936",
        "meta_mean_motion": 1.00272373,
        "meta_eccentricity": 9.441e-05,
        "meta_inclination": 0.0087,
        "meta_ra_of_asc_node": 102.1976,
        "meta_arg_of_pericenter": 224.669,
        "meta_mean_anomaly": 86.9004,
        "meta_ephemeris_type": 0,
        "meta_classification_type": "U",
        "meta_norad_cat_id": 60133,
        "meta_element_set_no": 999,
        "meta_rev_at_epoch": 518,
        "meta_bstar": 0,
        "meta_mean_motion_dot": -2.26e-06,
        "meta_mean_motion_ddot": 0,
        "tle_line1": "1 60133U 24119A   25356.10566199 -.00000226  00000+0  00000+0 0  9997",
        "tle_line2": "2 60133   0.0087 102.1976 0000944 224.6690  86.9004  1.00272373  5188"
      },
      "geometry": {
        "type": "Point",
        "coordinates": [
          -89.87428842893517,
          -0.006872400543510594
        ]
      }
    },
    {
      "type": "Feature",
      "properties": {
        "norad_id": 65815,
        "name": "FENGYUN 3H",
        "group": "weather",
        "lat": -26.373513494264266,
        "lon": 111.74579944230007,
        "alt_km": 831.4165326304055,
        "timestamp": "2025-12-22T16:55:17.092098+00:00",
        "meta_object_name": "FENGYUN 3H",
        "meta_object_id": "2025-219A",
        "meta_epoch": "2025-12-22T05:48:15.430464",
        "meta_mean_motion": 14.19907036,
        "meta_eccentricity": 7.68e-05,
        "meta_inclination": 98.6598,
        "meta_ra_of_asc_node": 295.6263,
        "meta_arg_of_pericenter": 106.2595,
        "meta_mean_anomaly": 253.8666,
        "meta_ephemeris_type": 0,
        "meta_classification_type": "U",
        "meta_norad_cat_id": 65815,
        "meta_element_set_no": 999,
        "meta_rev_at_epoch": 1227,
        "meta_bstar": 5.072921e-05,
        "meta_mean_motion_dot": 6.4e-07,
        "meta_mean_motion_ddot": 0,
        "tle_line1": "1 65815U 25219A   25356.24184526  .00000064  00000+0  50729-4 0  9993",
        "tle_line2": "2 65815  98.6598 295.6263 0000768 106.2595 253.8666 14.19907036 12272"
      },
      "geometry": {
        "type": "Point",
        "coordinates": [
          111.74579944230007,
          -26.373513494264266
        ]
      }
    }
  ]
}